{"id":"699","name":"Saturn ","centerId":"10","centerName":"Sun ","epoch":"2000-Jan-01 12:00:00.0000","ephemerisType":"ELEMENTS","table":{"eccentricity":0.05563834267345058,"periapsis":1353682190782.635,"inclination":2.484252387625145,"longitudeOfAscendingNode":113.6996600266686,"argumentOfPeriapsis":335.8655937185864,"timeOfPeriapsis":2452735.7706333147,"meanMotion":3.846563888180532e-7,"meanAnomaly":320.4255572592746,"trueAnomaly":316.1382469801452,"semiMajorAxis":1433436205589.77,"apoapsis":1513190220396.905,"siderealOrbitPeriod":935900222.8097245}}
